{"type": "FeatureCollection", "features": [ {"type": "Feature", "properties": {"norad_id": 58662, "name": "TIANMU-1 21", "group": "weather", "lat": -39.894543022646545, "lon": -91.41655314526561, "alt_km": 476.3891452731996, "timestamp": "2025-12-07T11:27:49.630525+00:00", "meta": {"OBJECT_NAME": "TIANMU-1 21", "OBJECT_ID": "2023-208C", "EPOCH": "2025-12-06T20:23:25.648224", "MEAN_MOTION": 15.31363218, "ECCENTRICITY": 0.00059126, "INCLINATION": 97.4382, "RA_OF_ASC_NODE": 94.2236, "ARG_OF_PERICENTER": 284.9182, "MEAN_ANOMALY": 75.1404, "EPHEMERIS_TYPE": 0, "CLASSIFICATION_TYPE": "U", "NORAD_CAT_ID": 58662, "ELEMENT_SET_NO": 999, "REV_AT_EPOCH": 10809, "BSTAR": 0.00056896793, "MEAN_MOTION_DOT": 0.00017184, "MEAN_MOTION_DDOT": 0}, "tle": {"line1": "1 58662U 23208C   25340.84960241  .00017184  00000+0  56897-3 0  9998", "line2": "2 58662  97.4382  94.2236 0005912 284.9182  75.1404 15.31363218108091"}}, "geometry": {"type": "Point", "coordinates": [-91.41655314526561, -39.894543022646545]}}, {"type": "Feature", "properties": {"norad_id": 58663, "name": "TIANMU-1 22", "group": "weather", "lat": -36.54339769630463, "lon": -92.96953174923945, "alt_km": 490.0223534286815, "timestamp": "2025-12-07T11:27:49.630535+00:00", "meta": {"OBJECT_NAME": "TIANMU-1 22", "OBJECT_ID": "2023-208D", "EPOCH": "2025-12-06T20:22:01.429824", "MEAN_MOTION": 15.27455057, "ECCENTRICITY": 0.00028984, "INCLINATION": 97.4391, "RA_OF_ASC_NODE": 91.9603, "ARG_OF_PERICENTER": 315.7848, "MEAN_ANOMALY": 44.3159, "EPHEMERIS_TYPE": 0, "CLASSIFICATION_TYPE": "U", "NORAD_CAT_ID": 58663, "ELEMENT_SET_NO": 999, "REV_AT_EPOCH": 10793, "BSTAR": 0.0005214938, "MEAN_MOTION_DOT": 0.0001395, "MEAN_MOTION_DDOT": 0}, "tle": {"line1": "1 58663U 23208D   25340.84862766  .00013950  00000+0  52149-3 0  9995", "line2": "2 58663  97.4391  91.9603 0002898 315.7848  44.3159 15.27455057107931"}}, "geometry": {"type": "Point", "coordinates": [-92.96953174923945, -36.54339769630463]}}, {"type": "Feature", "properties": {"norad_id": 58700, "name": "TIANMU-1 15", "group": "weather", "lat": 40.81861377701183, "lon": 156.4653896002807, "alt_km": 488.31462697621646, "timestamp": "2025-12-07T11:27:49.630545+00:00", "meta": {"OBJECT_NAME": "TIANMU-1 15", "OBJECT_ID": "2024-004A", "EPOCH": "2025-12-06T22:40:54.435072", "MEAN_MOTION": 15.24562995, "ECCENTRICITY": 0.0005525, "INCLINATION": 97.4625, "RA_OF_ASC_NODE": 162.4358, "ARG_OF_PERICENTER": 322.0891, "MEAN_ANOMALY": 37.9956, "EPHEMERIS_TYPE": 0, "CLASSIFICATION_TYPE": "U", "NORAD_CAT_ID": 58700, "ELEMENT_SET_NO": 999, "REV_AT_EPOCH": 10646, "BSTAR": 0.00042365598, "MEAN_MOTION_DOT": 0.00010372, "MEAN_MOTION_DDOT": 0}, "tle": {"line1": "1 58700U 24004A   25340.94507448  .00010372  00000+0  42366-3 0  9991", "line2": "2 58700  97.4625 162.4358 0005525 322.0891  37.9956 15.24562995106460"}}, "geometry": {"type": "Point", "coordinates": [156.4653896002807, 40.81861377701183]}}, {"type": "Feature", "properties": {"norad_id": 58701, "name": "TIANMU-1 16", "group": "weather", "lat": 51.527090324303636, "lon": -8.152797431271367, "alt_km": 491.3566526337845, "timestamp": "2025-12-07T11:27:49.630555+00:00", "meta": {"OBJECT_NAME": "TIANMU-1 16", "OBJECT_ID": "2024-004B", "EPOCH": "2025-12-06T22:18:04.133664", "MEAN_MOTION": 15.24314624, "ECCENTRICITY": 0.00048499, "INCLINATION": 97.4564, "RA_OF_ASC_NODE": 161.8153, "ARG_OF_PERICENTER": 320.8315, "MEAN_ANOMALY": 39.2571, "EPHEMERIS_TYPE": 0, "CLASSIFICATION_TYPE": "U", "NORAD_CAT_ID": 58701, "ELEMENT_SET_NO": 999, "REV_AT_EPOCH": 10646, "BSTAR": 0.00044097206, "MEAN_MOTION_DOT": 0.00010718, "MEAN_MOTION_DDOT": 0}, "tle": {"line1": "1 58701U 24004B   25340.92921451  .00010718  00000+0  44097-3 0  9991", "line2": "2 58701  97.4564 161.8153 0004849 320.8315  39.2571 15.24314624106466"}}, "geometry": {"type": "Point", "coordinates": [-8.152797431271367, 51.527090324303636]}}, {"type": "Feature", "properties": {"norad_id": 58702, "name": "TIANMU-1 17", "group": "weather", "lat": -31.195771474883212, "lon": -21.782429667945152, "alt_km": 499.80495721975876, "timestamp": "2025-12-07T11:27:49.630565+00:00", "meta": {"OBJECT_NAME": "TIANMU-1 17", "OBJECT_ID": "2024-004C", "EPOCH": "2025-12-06T21:56:07.806336", "MEAN_MOTION": 15.24360082, "ECCENTRICITY": 0.0004043, "INCLINATION": 97.4599, "RA_OF_ASC_NODE": 162.2073, "ARG_OF_PERICENTER": 324.9573, "MEAN_ANOMALY": 35.1398, "EPHEMERIS_TYPE": 0, "CLASSIFICATION_TYPE": "U", "NORAD_CAT_ID": 58702, "ELEMENT_SET_NO": 999, "REV_AT_EPOCH": 10645, "BSTAR": 0.00043557464, "MEAN_MOTION_DOT": 0.000106, "MEAN_MOTION_DDOT": 0}, "tle": {"line1": "1 58702U 24004C   25340.91397924  .00010600  00000+0  43557-3 0  9993", "line2": "2 58702  97.4599 162.2073 0004043 324.9573  35.1398 15.24360082106458"}}, "geometry": {"type": "Point", "coordinates": [-21.782429667945152, -31.195771474883212]}}, {"type": "Feature", "properties": {"norad_id": 58703, "name": "TIANMU-1 18", "group": "weather", "lat": -56.18925969677523, "lon": 174.24806112207398, "alt_km": 497.63830415073244, "timestamp": "2025-12-07T11:27:49.630575+00:00", "meta": {"OBJECT_NAME": "TIANMU-1 18", "OBJECT_ID": "2024-004D", "EPOCH": "2025-12-06T23:06:33.948288", "MEAN_MOTION": 15.24351569, "ECCENTRICITY": 0.0003392, "INCLINATION": 97.4616, "RA_OF_ASC_NODE": 162.45, "ARG_OF_PERICENTER": 326.5979, "MEAN_ANOMALY": 33.5044, "EPHEMERIS_TYPE": 0, "CLASSIFICATION_TYPE": "U", "NORAD_CAT_ID": 58703, "ELEMENT_SET_NO": 999, "REV_AT_EPOCH": 10646, "BSTAR": 0.00040737536, "MEAN_MOTION_DOT": 9.905e-05, "MEAN_MOTION_DDOT": 0}, "tle": {"line1": "1 58703U 24004D   25340.96289292  .00009905  00000+0  40738-3 0  9991", "line2": "2 58703  97.4616 162.4500 0003392 326.5979  33.5044 15.24351569106461"}}, "geometry": {"type": "Point", "coordinates": [174.24806112207398, -56.18925969677523]}}, {"type": "Feature", "properties": {"norad_id": 58990, "name": "INSAT-3DS", "group": "weather", "lat": -0.014132063329909137, "lon": -29.44387499550559, "alt_km": 35783.84189934074, "timestamp": "2025-12-07T11:27:49.630587+00:00", "meta": {"OBJECT_NAME": "INSAT-3DS", "OBJECT_ID": "2024-033A", "EPOCH": "2025-12-06T20:54:15.090336", "MEAN_MOTION": 1.00269653, "ECCENTRICITY": 0.00017318, "INCLINATION": 0.009, "RA_OF_ASC_NODE": 25.8708, "ARG_OF_PERICENTER": 237.7213, "MEAN_ANOMALY": 207.9664, "EPHEMERIS_TYPE": 0, "CLASSIFICATION_TYPE": "U", "NORAD_CAT_ID": 58990, "ELEMENT_SET_NO": 999, "REV_AT_EPOCH": 4514, "BSTAR": 0, "MEAN_MOTION_DOT": -1.5e-06, "MEAN_MOTION_DDOT": 0}, "tle": {"line1": "1 58990U 24033A   25340.87100799 -.00000150  00000+0  00000+0 0  9993", "line2": "2 58990   0.0090  25.8708 0001731 237.7213 207.9664  1.00269653 45149"}}, "geometry": {"type": "Point", "coordinates": [-29.44387499550559, -0.014132063329909137]}}, {"type": "Feature", "properties": {"norad_id": 59051, "name": "METEOR-M2 4", "group": "weather", "lat": -65.55021042720905, "lon": 98.84651876155718, "alt_km": 827.586963011744, "timestamp": "2025-12-07T11:27:49.630598+00:00", "meta": {"OBJECT_NAME": "METEOR-M2 4", "OBJECT_ID": "2024-039A", "EPOCH": "2025-12-06T22:29:17.069568", "MEAN_MOTION": 14.22399858, "ECCENTRICITY": 0.00073613, "INCLINATION": 98.6759, "RA_OF_ASC_NODE": 297.9371, "ARG_OF_PERICENTER": 14.9429, "MEAN_ANOMALY": 345.1965, "EPHEMERIS_TYPE": 0, "CLASSIFICATION_TYPE": "U", "NORAD_CAT_ID": 59051, "ELEMENT_SET_NO": 999, "REV_AT_EPOCH": 9193, "BSTAR": 5.770952e-05, "MEAN_MOTION_DOT": 8.5e-07, "MEAN_MOTION_DDOT": 0}, "tle": {"line1": "1 59051U 24039A   25340.93700312  .00000085  00000+0  57710-4 0  9993", "line2": "2 59051  98.6759 297.9371 0007361  14.9429 345.1965 14.22399858 91936"}}, "geometry": {"type": "Point", "coordinates": [98.84651876155718, -65.55021042720905]}}, {"type": "Feature", "properties": {"norad_id": 60133, "name": "GOES 19", "group": "weather", "lat": -0.00040013990294327314, "lon": 173.24763423837462, "alt_km": 35790.348477792555, "timestamp": "2025-12-07T11:27:49.630609+00:00", "meta": {"OBJECT_NAME": "GOES 19", "OBJECT_ID": "2024-119A", "EPOCH": "2025-12-06T21:52:09.543648", "MEAN_MOTION": 1.00270052, "ECCENTRICITY": 0.00014418, "INCLINATION": 0.0074, "RA_OF_ASC_NODE": 83.119, "ARG_OF_PERICENTER": 218.232, "MEAN_ANOMALY": 27.4459, "EPHEMERIS_TYPE": 0, "CLASSIFICATION_TYPE": "U", "NORAD_CAT_ID": 60133, "ELEMENT_SET_NO": 999, "REV_AT_EPOCH": 503, "BSTAR": 0, "MEAN_MOTION_DOT": -2.43e-06, "MEAN_MOTION_DDOT": 0}, "tle": {"line1": "1 60133U 24119A   25340.91122157 -.00000243  00000+0  00000+0 0  9990", "line2": "2 60133   0.0074  83.1190 0001441 218.2320  27.4459  1.00270052  5032"}}, "geometry": {"type": "Point", "coordinates": [173.24763423837462, -0.00040013990294327314]}}, {"type": "Feature", "properties": {"norad_id": 65815, "name": "FENGYUN 3H", "group": "weather", "lat": 6.5770744636268965, "lon": 102.18895992251647, "alt_km": 827.7482360017748, "timestamp": "2025-12-07T11:27:49.630623+00:00", "meta": {"OBJECT_NAME": "FENGYUN 3H", "OBJECT_ID": "2025-219A", "EPOCH": "2025-12-06T21:07:15.260736", "MEAN_MOTION": 14.19902148, "ECCENTRICITY": 6.154e-05, "INCLINATION": 98.6576, "RA_OF_ASC_NODE": 280.5979, "ARG_OF_PERICENTER": 78.9285, "MEAN_ANOMALY": 281.1961, "EPHEMERIS_TYPE": 0, "CLASSIFICATION_TYPE": "U", "NORAD_CAT_ID": 65815, "ELEMENT_SET_NO": 999, "REV_AT_EPOCH": 1009, "BSTAR": 0.00011996368, "MEAN_MOTION_DOT": 2.11e-06, "MEAN_MOTION_DDOT": 0}, "tle": {"line1": "1 65815U 25219A   25340.88003774  .00000211  00000+0  11996-3 0  9997", "line2": "2 65815  98.6576 280.5979 0000615  78.9285 281.1961 14.19902148 10096"}}, "geometry": {"type": "Point", "coordinates": [102.18895992251647, 6.5770744636268965]}}]}